[{"OBJECT_NAME":"ALOS (DAICHI)","OBJECT_ID":"2006-002A","EPOCH":"2026-04-01T13:55:49.321344","MEAN_MOTION":14.69880872,"ECCENTRICITY":9.76e-5,"INCLINATION":98.1255,"RA_OF_ASC_NODE":47.4277,"ARG_OF_PERICENTER":112.1277,"MEAN_ANOMALY":248.0033,"EPHEMERIS_TYPE":0,"CLASSIFICATION_TYPE":"U","NORAD_CAT_ID":28931,"ELEMENT_SET_NO":999,"REV_AT_EPOCH":7684,"BSTAR":0.00028529,"MEAN_MOTION_DOT":1.657e-5,"MEAN_MOTION_DDOT":0},{"OBJECT_NAME":"H-2A R/B","OBJECT_ID":"2006-002B","EPOCH":"2026-04-01T08:53:50.723808","MEAN_MOTION":15.16938607,"ECCENTRICITY":0.0052452,"INCLINATION":98.2449,"RA_OF_ASC_NODE":240.3595,"ARG_OF_PERICENTER":163.6446,"MEAN_ANOMALY":196.6493,"EPHEMERIS_TYPE":0,"CLASSIFICATION_TYPE":"U","NORAD_CAT_ID":28932,"ELEMENT_SET_NO":999,"REV_AT_EPOCH":9787,"BSTAR":0.00059055,"MEAN_MOTION_DOT":0.00011998,"MEAN_MOTION_DDOT":0},{"OBJECT_NAME":"RESURS-DK 1","OBJECT_ID":"2006-021A","EPOCH":"2026-04-01T09:55:02.447328","MEAN_MOTION":15.12882777,"ECCENTRICITY":0.0001629,"INCLINATION":69.9337,"RA_OF_ASC_NODE":178.2419,"ARG_OF_PERICENTER":43.1774,"MEAN_ANOMALY":316.9519,"EPHEMERIS_TYPE":0,"CLASSIFICATION_TYPE":"U","NORAD_CAT_ID":29228,"ELEMENT_SET_NO":999,"REV_AT_EPOCH":9096,"BSTAR":0.00013004,"MEAN_MOTION_DOT":2.186e-5,"MEAN_MOTION_DDOT":0},{"OBJECT_NAME":"CZ-4B R/B","OBJECT_ID":"2006-046C","EPOCH":"2026-04-01T02:26:42.933120","MEAN_MOTION":15.17135934,"ECCENTRICITY":0.00330178,"INCLINATION":97.5547,"RA_OF_ASC_NODE":135.9485,"ARG_OF_PERICENTER":187.0489,"MEAN_ANOMALY":173.0284,"EPHEMERIS_TYPE":0,"CLASSIFICATION_TYPE":"U","NORAD_CAT_ID":29507,"ELEMENT_SET_NO":999,"REV_AT_EPOCH":6344,"BSTAR":0.00029651177,"MEAN_MOTION_DOT":5.894e-5,"MEAN_MOTION_DDOT":0},{"OBJECT_NAME":"CZ-2C R/B","OBJECT_ID":"2007-010B","EPOCH":"2026-04-01T13:14:33.340128","MEAN_MOTION":14.20254683,"ECCENTRICITY":0.0058196,"INCLINATION":98.4002,"RA_OF_ASC_NODE":203.6874,"ARG_OF_PERICENTER":226.9043,"MEAN_ANOMALY":132.7257,"EPHEMERIS_TYPE":0,"CLASSIFICATION_TYPE":"U","NORAD_CAT_ID":31114,"ELEMENT_SET_NO":999,"REV_AT_EPOCH":98296,"BSTAR":9.9608e-5,"MEAN_MOTION_DOT":1.75e-6,"MEAN_MOTION_DDOT":0},{"OBJECT_NAME":"COSMO-SKYMED 1","OBJECT_ID":"2007-023A","EPOCH":"2026-04-01T19:08:24.654048","MEAN_MOTION":14.96704826,"ECCENTRICITY":0.0001323,"INCLINATION":97.8867,"RA_OF_ASC_NODE":283.0184,"ARG_OF_PERICENTER":102.9753,"MEAN_ANOMALY":257.1616,"EPHEMERIS_TYPE":0,"CLASSIFICATION_TYPE":"U","NORAD_CAT_ID":31598,"ELEMENT_SET_NO":999,"REV_AT_EPOCH":1836,"BSTAR":0.00034968,"MEAN_MOTION_DOT":3.934e-5,"MEAN_MOTION_DDOT":0},{"OBJECT_NAME":"COSMOS 2428","OBJECT_ID":"2007-029A","EPOCH":"2026-04-01T11:20:06.066816","MEAN_MOTION":14.12948503,"ECCENTRICITY":0.0009719,"INCLINATION":70.9427,"RA_OF_ASC_NODE":155.5275,"ARG_OF_PERICENTER":253.4949,"MEAN_ANOMALY":106.5104,"EPHEMERIS_TYPE":0,"CLASSIFICATION_TYPE":"U","NORAD_CAT_ID":31792,"ELEMENT_SET_NO":999,"REV_AT_EPOCH":96731,"BSTAR":7.4797e-6,"MEAN_MOTION_DOT":-3.4e-7,"MEAN_MOTION_DDOT":0},{"OBJECT_NAME":"SL-16 R/B","OBJECT_ID":"2007-029B","EPOCH":"2026-04-01T20:18:02.396448","MEAN_MOTION":14.14843675,"ECCENTRICITY":0.0002856,"INCLINATION":70.9743,"RA_OF_ASC_NODE":123.7102,"ARG_OF_PERICENTER":277.6544,"MEAN_ANOMALY":254.1564,"EPHEMERIS_TYPE":0,"CLASSIFICATION_TYPE":"U","NORAD_CAT_ID":31793,"ELEMENT_SET_NO":999,"REV_AT_EPOCH":96864,"BSTAR":-1.8073e-5,"MEAN_MOTION_DOT":-8.3e-7,"MEAN_MOTION_DDOT":0},{"OBJECT_NAME":"KORONAS-FOTON","OBJECT_ID":"2009-003A","EPOCH":"2026-04-01T20:12:26.619264","MEAN_MOTION":15.43964681,"ECCENTRICITY":0.0011588,"INCLINATION":82.428,"RA_OF_ASC_NODE":251.7929,"ARG_OF_PERICENTER":74.4802,"MEAN_ANOMALY":285.7724,"EPHEMERIS_TYPE":0,"CLASSIFICATION_TYPE":"U","NORAD_CAT_ID":33504,"ELEMENT_SET_NO":999,"REV_AT_EPOCH":94931,"BSTAR":0.0003387,"MEAN_MOTION_DOT":0.00015498,"MEAN_MOTION_DDOT":0},{"OBJECT_NAME":"CZ-2C R/B","OBJECT_ID":"2011-030B","EPOCH":"2026-04-01T09:29:01.774752","MEAN_MOTION":14.81300901,"ECCENTRICITY":0.0050966,"INCLINATION":97.8582,"RA_OF_ASC_NODE":48.2108,"ARG_OF_PERICENTER":276.7987,"MEAN_ANOMALY":242.8589,"EPHEMERIS_TYPE":0,"CLASSIFICATION_TYPE":"U","NORAD_CAT_ID":37731,"ELEMENT_SET_NO":999,"REV_AT_EPOCH":79345,"BSTAR":0.00020247,"MEAN_MOTION_DOT":1.56e-5,"MEAN_MOTION_DDOT":0},{"OBJECT_NAME":"H-2A R/B","OBJECT_ID":"2012-025E","EPOCH":"2026-04-01T21:10:56.131968","MEAN_MOTION":14.9533143,"ECCENTRICITY":0.0043002,"INCLINATION":98.4771,"RA_OF_ASC_NODE":60.7942,"ARG_OF_PERICENTER":236.0522,"MEAN_ANOMALY":123.6606,"EPHEMERIS_TYPE":0,"CLASSIFICATION_TYPE":"U","NORAD_CAT_ID":38341,"ELEMENT_SET_NO":999,"REV_AT_EPOCH":75168,"BSTAR":0.00023775,"MEAN_MOTION_DOT":2.599e-5,"MEAN_MOTION_DDOT":0},{"OBJECT_NAME":"SHIJIAN-16 (SJ-16)","OBJECT_ID":"2013-057A","EPOCH":"2026-04-01T21:22:44.224896","MEAN_MOTION":14.92432276,"ECCENTRICITY":0.0015334,"INCLINATION":74.9721,"RA_OF_ASC_NODE":141.1674,"ARG_OF_PERICENTER":52.477,"MEAN_ANOMALY":307.7809,"EPHEMERIS_TYPE":0,"CLASSIFICATION_TYPE":"U","NORAD_CAT_ID":39358,"ELEMENT_SET_NO":999,"REV_AT_EPOCH":67496,"BSTAR":0.0001218,"MEAN_MOTION_DOT":1.222e-5,"MEAN_MOTION_DDOT":0},{"OBJECT_NAME":"SL-4 R/B","OBJECT_ID":"2014-021B","EPOCH":"2026-04-01T16:07:38.621856","MEAN_MOTION":15.40016096,"ECCENTRICITY":0.0094817,"INCLINATION":51.6061,"RA_OF_ASC_NODE":225.0923,"ARG_OF_PERICENTER":186.7435,"MEAN_ANOMALY":173.228,"EPHEMERIS_TYPE":0,"CLASSIFICATION_TYPE":"U","NORAD_CAT_ID":39679,"ELEMENT_SET_NO":999,"REV_AT_EPOCH":65981,"BSTAR":0.00042208,"MEAN_MOTION_DOT":0.00019676,"MEAN_MOTION_DDOT":0},{"OBJECT_NAME":"ALOS-2","OBJECT_ID":"2014-029A","EPOCH":"2026-04-01T20:22:50.439360","MEAN_MOTION":14.79464278,"ECCENTRICITY":0.0002,"INCLINATION":97.9197,"RA_OF_ASC_NODE":190.11,"ARG_OF_PERICENTER":100.3142,"MEAN_ANOMALY":259.8295,"EPHEMERIS_TYPE":0,"CLASSIFICATION_TYPE":"U","NORAD_CAT_ID":39766,"ELEMENT_SET_NO":999,"REV_AT_EPOCH":64029,"BSTAR":0.0001855,"MEAN_MOTION_DOT":1.334e-5,"MEAN_MOTION_DDOT":0},{"OBJECT_NAME":"YAOGAN-29","OBJECT_ID":"2015-069A","EPOCH":"2026-04-01T20:52:27.067008","MEAN_MOTION":14.83019527,"ECCENTRICITY":1.52e-5,"INCLINATION":98.0108,"RA_OF_ASC_NODE":120.3582,"ARG_OF_PERICENTER":347.864,"MEAN_ANOMALY":12.2569,"EPHEMERIS_TYPE":0,"CLASSIFICATION_TYPE":"U","NORAD_CAT_ID":41038,"ELEMENT_SET_NO":999,"REV_AT_EPOCH":55931,"BSTAR":1.8885e-5,"MEAN_MOTION_DOT":9.9e-7,"MEAN_MOTION_DDOT":0},{"OBJECT_NAME":"ASTRO-H (HITOMI)","OBJECT_ID":"2016-012A","EPOCH":"2026-04-01T15:16:50.803968","MEAN_MOTION":15.10152335,"ECCENTRICITY":0.000966,"INCLINATION":30.9992,"RA_OF_ASC_NODE":208.4476,"ARG_OF_PERICENTER":202.6657,"MEAN_ANOMALY":157.3555,"EPHEMERIS_TYPE":0,"CLASSIFICATION_TYPE":"U","NORAD_CAT_ID":41337,"ELEMENT_SET_NO":999,"REV_AT_EPOCH":55570,"BSTAR":0.00020868,"MEAN_MOTION_DOT":3.587e-5,"MEAN_MOTION_DDOT":0},{"OBJECT_NAME":"HXMT (HUIYAN)","OBJECT_ID":"2017-034A","EPOCH":"2026-04-01T19:31:19.780896","MEAN_MOTION":15.17756325,"ECCENTRICITY":0.003131,"INCLINATION":43.0135,"RA_OF_ASC_NODE":248.0847,"ARG_OF_PERICENTER":18.6785,"MEAN_ANOMALY":341.5205,"EPHEMERIS_TYPE":0,"CLASSIFICATION_TYPE":"U","NORAD_CAT_ID":42758,"ELEMENT_SET_NO":999,"REV_AT_EPOCH":48605,"BSTAR":0.00029219,"MEAN_MOTION_DOT":5.843e-5,"MEAN_MOTION_DDOT":0}]
